OBJECT_NAME,OBJECT_ID,EPOCH,MEAN_MOTION,ECCENTRICITY,INCLINATION,RA_OF_ASC_NODE,ARG_OF_PERICENTER,MEAN_ANOMALY,EPHEMERIS_TYPE,CLASSIFICATION_TYPE,NORAD_CAT_ID,ELEMENT_SET_NO,REV_AT_EPOCH,BSTAR,MEAN_MOTION_DOT,MEAN_MOTION_DDOT
CONNECTA T1.2,2023-001D,2026-06-06T10:57:03.979584,15.49873498,.0006713,97.3291,227.9620,135.2108,224.9686,0,U,55012,999,19088,.67557106E-3,.37754E-3,0
BIRKELAND,2023-001G,2026-06-06T14:52:52.190400,15.39890873,.00080945,97.3344,225.5643,135.5598,224.6299,0,U,55015,999,19072,.27820398E-3,.10991E-3,0
ION SCV-008,2023-001AU,2026-06-06T04:11:04.728192,15.28443568,.0015991,97.5702,253.3098,55.3206,304.9537,0,U,55051,999,18965,.30846E-3,.8495E-4,0
ION SCV-007,2023-001BD,2026-06-06T10:19:43.046112,14.77544033,.00126685,97.9009,220.6581,17.3542,342.8099,0,U,55060,999,18466,.79498705E-4,.517E-5,0
HUYGENS,2023-001CN,2026-06-06T14:53:00.990240,15.39882436,.0011184,97.3248,224.8079,118.4569,241.7805,0,U,55093,999,19074,.28482502E-3,.11263E-3,0
SHARJAHSAT-1,2023-001CZ,2026-06-06T13:58:09.588288,15.48660518,.00070351,97.3172,226.2039,134.3217,225.8612,0,U,55104,999,19085,.44091024E-3,.23543E-3,0
HORUS 1,2023-025A,2026-06-06T13:52:47.612640,15.23490380,.00020455,97.3459,232.3954,129.8965,230.2453,0,U,55690,999,18243,.29710109E-3,.702E-4,0
HORUS 2,2023-032A,2026-06-06T14:42:49.444128,15.23314319,.00020875,97.3531,233.2265,114.3685,245.7770,0,U,55844,999,17987,.31185329E-3,.7334E-4,0
GLOBAL-19,2023-041B,2026-06-06T07:38:26.921760,15.38279558,.00087247,42.0016,265.2614,282.7741,77.2124,0,U,55982,999,18025,.4969343E-3,.18978E-3,0
BRO-9,2023-054H,2026-06-06T15:05:18.163680,15.94349208,.0006682,97.2933,75.2460,132.3148,227.8694,0,U,56185,999,17740,.13221504E-2,.491778E-2,.98989229E-4
ION SCV-010,2023-054Q,2026-06-06T09:46:09.421536,15.26104570,.00113412,97.3791,47.0457,238.4142,121.5990,0,U,56192,999,17455,.22983668E-3,.5865E-4,0
TELEOS-2,2023-057C,2026-06-05T21:24:30.760416,14.96374255,.0001117,9.9854,286.4560,55.0249,305.0069,0,U,56310,999,17110,-.2069E-3,-.1719E-4,0
SNIPE 4,2023-072B,2026-06-06T13:44:25.594080,15.41932811,.00054536,97.5262,3.2441,19.7018,340.4439,0,U,56744,999,16847,.62290124E-3,.26472E-3,0
SNIPE 2,2023-072C,2026-06-06T15:30:03.864384,15.46328590,.00052781,97.5257,6.2912,49.4133,310.7574,0,U,56745,999,16861,.65745914E-3,.32446E-3,0
2023-072G,2023-072G,2026-06-06T14:33:48.030624,15.49970443,.00040311,97.4919,5.0420,41.8635,318.2923,0,U,56749,999,16882,.66420231E-3,.37219E-3,0
GEISAT PRECURSOR,2023-084C,2026-06-06T15:43:52.006656,15.34507889,.00059601,97.6214,298.2642,35.7546,324.4094,0,U,56934,999,16591,.26614538E-3,.8818E-4,0
BLACKJACK ACES-3,2023-084U,2026-06-06T15:01:47.388288,15.18412744,.00034751,97.6202,292.7388,62.2319,297.9267,0,U,56950,999,16556,.31844293E-3,.6484E-4,0
BLACKJACK ACES-2,2023-084Z,2026-06-06T15:11:22.872768,15.18481229,.00017232,97.6201,292.8296,72.4977,287.6445,0,U,56955,999,16557,.42176023E-3,.8629E-4,0
BLACKJACK ACES-1,2023-084AA,2026-06-05T21:30:26.284320,15.18458699,.0001335,97.6191,291.8617,96.4000,263.7386,0,U,56956,999,11518,.43851E-3,.8969E-4,0
ION SCV-011,2023-084AB,2026-06-06T11:06:44.640288,15.28741173,.0008477,98.1385,343.7497,78.1671,282.0517,0,U,56957,999,16417,.24193955E-3,.6679E-4,0
GHOST-3,2023-084AC,2026-06-05T21:55:42.765024,15.47509040,.0005814,97.6207,304.8853,341.7943,18.3097,0,U,56958,999,16627,.44635808E-3,.22886E-3,0
TOMORROW-R2,2023-084AG,2026-06-06T04:27:51.394464,15.99232517,.00062281,97.5980,319.8732,249.2732,110.7878,0,U,56962,999,16729,.89380965E-3,.433704E-2,.81954079E-4
AFR-1,2023-084AJ,2026-06-06T15:02:53.630304,15.28465942,.00109223,97.6263,294.0656,24.0564,336.1183,0,U,56964,999,16561,.20192022E-3,.5524E-4,0
METEOR-M2 3,2023-091A,2026-06-06T15:06:18.916704,14.24045993,.00037403,98.6086,212.8232,183.8999,176.2152,0,U,57166,999,15301,.22792231E-4,.9E-7,0
UMKA 1 (RS40S),2023-091G,2026-06-06T13:35:12.583104,15.20695735,.0013687,97.5051,216.3050,151.1060,209.0936,0,U,57172,999,16239,.37379527E-3,.8168E-4,0
2023-091H,2023-091H,2026-06-06T13:51:51.734304,15.28405133,.00109243,97.5048,220.6855,145.4622,214.7329,0,U,57173,999,16268,.55966877E-3,.15444E-3,0
2023-091J,2023-091J,2026-06-06T14:42:32.673888,15.13855589,.0013413,97.5058,210.8604,177.4665,182.6637,0,U,57174,999,16203,.25642371E-3,.458E-4,0
CUBEBEL 2 (EU11S),2023-091K,2026-06-06T13:58:08.010624,15.28896087,.00109423,97.5050,220.7061,147.1182,213.0740,0,U,57175,999,16268,.57860278E-3,.16212E-3,0
SITRO-AIS 5 (KATYS),2023-091L,2026-06-06T14:25:42.993984,15.29209643,.00125945,97.5059,221.4018,136.3036,223.9203,0,U,57176,999,16272,.55660367E-3,.15752E-3,0
ZORKIY-2M 1,2023-091M,2026-06-06T14:51:08.266752,15.20764157,.00143114,97.5092,216.6186,148.3574,211.8525,0,U,57177,999,16239,.3824436E-3,.8377E-4,0
