CONNECTA T1.2           
1 55012U 23001D   26157.45629606  .00037754  00000+0  67557-3 0  9996
2 55012  97.3291 227.9620 0006713 135.2108 224.9686 15.49873498190882
BIRKELAND               
1 55015U 23001G   26157.62004850  .00010991  00000+0  27820-3 0  9999
2 55015  97.3344 225.5643 0008094 135.5598 224.6299 15.39890873190728
ION SCV-008             
1 55051U 23001AU  26157.17436028  .00008495  00000+0  30846-3 0  9993
2 55051  97.5702 253.3098 0015991  55.3206 304.9537 15.28443568189650
ION SCV-007             
1 55060U 23001BD  26157.43035933  .00000517  00000+0  79499-4 0  9997
2 55060  97.9009 220.6581 0012668  17.3542 342.8099 14.77544033184669
HUYGENS                 
1 55093U 23001CN  26157.62015035  .00011263  00000+0  28483-3 0  9991
2 55093  97.3248 224.8079 0011184 118.4569 241.7805 15.39882436190745
SHARJAHSAT-1            
1 55104U 23001CZ  26157.58205542  .00023543  00000+0  44091-3 0  9990
2 55104  97.3172 226.2039 0007035 134.3217 225.8612 15.48660518190859
HORUS 1                 
1 55690U 23025A   26157.57832885  .00007020  00000+0  29710-3 0  9994
2 55690  97.3459 232.3954 0002045 129.8965 230.2453 15.23490380182435
HORUS 2                 
1 55844U 23032A   26157.61307227  .00007334  00000+0  31185-3 0  9992
2 55844  97.3531 233.2265 0002087 114.3685 245.7770 15.23314319179870
GLOBAL-19               
1 55982U 23041B   26157.31836715  .00018978  00000+0  49693-3 0  9990
2 55982  42.0016 265.2614 0008724 282.7741  77.2124 15.38279558180254
BRO-9                   
1 56185U 23054H   26157.62868245  .00491778  98989-4  13222-2 0  9996
2 56185  97.2933  75.2460 0006682 132.3148 227.8694 15.94349208177400
ION SCV-010             
1 56192U 23054Q   26157.40705349  .00005865  00000+0  22984-3 0  9991
2 56192  97.3791  47.0457 0011341 238.4142 121.5990 15.26104570174552
TELEOS-2                
1 56310U 23057C   26156.89202269 -.00001719  00000+0 -20690-3 0  9999
2 56310   9.9854 286.4560 0001117  55.0249 305.0069 14.96374255171107
SNIPE 4                 
1 56744U 23072B   26157.57251845  .00026472  00000+0  62290-3 0  9990
2 56744  97.5262   3.2441 0005453  19.7018 340.4439 15.41932811168474
SNIPE 2                 
1 56745U 23072C   26157.64587806  .00032446  00000+0  65746-3 0  9995
2 56745  97.5257   6.2912 0005278  49.4133 310.7574 15.46328590168612
2023-072G               
1 56749U 23072G   26157.60680591  .00037219  00000+0  66420-3 0  9993
2 56749  97.4919   5.0420 0004031  41.8635 318.2923 15.49970443168827
GEISAT PRECURSOR        
1 56934U 23084C   26157.65546304  .00008818  00000+0  26615-3 0  9995
2 56934  97.6214 298.2642 0005960  35.7546 324.4094 15.34507889165919
BLACKJACK ACES-3        
1 56950U 23084U   26157.62624292  .00006484  00000+0  31844-3 0  9990
2 56950  97.6202 292.7388 0003475  62.2319 297.9267 15.18412744165566
BLACKJACK ACES-2        
1 56955U 23084Z   26157.63290362  .00008629  00000+0  42176-3 0  9996
2 56955  97.6201 292.8296 0001723  72.4977 287.6445 15.18481229165575
BLACKJACK ACES-1        
1 56956U 23084AA  26156.89613755  .00008969  00000+0  43851-3 0  9997
2 56956  97.6191 291.8617 0001335  96.4000 263.7386 15.18458699115188
ION SCV-011             
1 56957U 23084AB  26157.46301667  .00006679  00000+0  24194-3 0  9993
2 56957  98.1385 343.7497 0008477  78.1671 282.0517 15.28741173164174
GHOST-3                 
1 56958U 23084AC  26156.91368941  .00022886  00000+0  44636-3 0  9992
2 56958  97.6207 304.8853 0005814 341.7943  18.3097 15.47509040166271
TOMORROW-R2             
1 56962U 23084AG  26157.18601151  .00433704  81954-4  89381-3 0  9993
2 56962  97.5980 319.8732 0006228 249.2732 110.7878 15.99232517167299
AFR-1                   
1 56964U 23084AJ  26157.62700961  .00005524  00000+0  20192-3 0  9991
2 56964  97.6263 294.0656 0010922  24.0564 336.1183 15.28465942165612
METEOR-M2 3             
1 57166U 23091A   26157.62938561  .00000009  00000+0  22792-4 0  9995
2 57166  98.6086 212.8232 0003740 183.8999 176.2152 14.24045993153010
UMKA 1 (RS40S)          
1 57172U 23091G   26157.56611786  .00008168  00000+0  37380-3 0  9994
2 57172  97.5051 216.3050 0013687 151.1060 209.0936 15.20695735162390
2023-091H               
1 57173U 23091H   26157.57768211  .00015444  00000+0  55967-3 0  9998
2 57173  97.5048 220.6855 0010924 145.4622 214.7329 15.28405133162689
2023-091J               
1 57174U 23091J   26157.61287817  .00004580  00000+0  25642-3 0  9998
2 57174  97.5058 210.8604 0013413 177.4665 182.6637 15.13855589162034
CUBEBEL 2 (EU11S)       
1 57175U 23091K   26157.58203716  .00016212  00000+0  57860-3 0  9993
2 57175  97.5050 220.7061 0010942 147.1182 213.0740 15.28896087162685
SITRO-AIS 5 (KATYS)     
1 57176U 23091L   26157.60119206  .00015752  00000+0  55660-3 0  9991
2 57176  97.5059 221.4018 0012594 136.3036 223.9203 15.29209643162724
ZORKIY-2M 1             
1 57177U 23091M   26157.61884568  .00008377  00000+0  38244-3 0  9997
2 57177  97.5092 216.6186 0014311 148.3574 211.8525 15.20764157162396
